OBJECT_NAME,OBJECT_ID,EPOCH,MEAN_MOTION,ECCENTRICITY,INCLINATION,RA_OF_ASC_NODE,ARG_OF_PERICENTER,MEAN_ANOMALY,EPHEMERIS_TYPE,CLASSIFICATION_TYPE,NORAD_CAT_ID,ELEMENT_SET_NO,REV_AT_EPOCH,BSTAR,MEAN_MOTION_DOT,MEAN_MOTION_DDOT
INNOSAT 3 (RS92S0),2025-155U,2026-06-26T13:54:33.129504,15.44474805,.00077463,97.4481,149.3038,129.7919,230.4013,0,U,64894,999,8241,.81538085E-3,.37846E-3,0
KNACKSAT-2,1998-067XZ,2026-06-26T10:40:36.323040,15.60782463,.0008675,51.6280,247.8833,257.0459,102.9566,0,U,67683,999,2172,.58452E-3,.49509E-3,0
