INNOSAT 3 (RS92S0)      
1 64894U 25155U   26177.57955011  .00037846  00000+0  81538-3 0  9990
2 64894  97.4481 149.3038 0007746 129.7919 230.4013 15.44474805 82416
KNACKSAT-2              
1 67683U 98067XZ  26177.44486485  .00049509  00000+0  58452-3 0  9999
2 67683  51.6280 247.8833 0008674 257.0459 102.9566 15.60782463 21729
